{
  "type": "FeatureCollection",
  "features": [
    {
      "type": "Feature",
      "properties": {
        "norad_id": 40010,
        "name": "KAZEOSAT 2",
        "group": "resource",
        "lat": -56.15368747797987,
        "lon": 6.481031520125356,
        "alt_km": 616.8473550338049,
        "timestamp": "2025-12-19T22:41:52.036140+00:00",
        "meta_object_name": "KAZEOSAT 2",
        "meta_object_id": "2014-033A",
        "meta_epoch": "2025-12-19T18:24:03.462336",
        "meta_mean_motion": 14.85177553,
        "meta_eccentricity": 0.0008203,
        "meta_inclination": 97.5499,
        "meta_ra_of_asc_node": 197.718,
        "meta_arg_of_pericenter": 182.1067,
        "meta_mean_anomaly": 178.0115,
        "meta_ephemeris_type": 0,
        "meta_classification_type": "U",
        "meta_norad_cat_id": 40010,
        "meta_element_set_no": 999,
        "meta_rev_at_epoch": 62232,
        "meta_bstar": 1.6862e-05,
        "meta_mean_motion_dot": 9.4e-07,
        "meta_mean_motion_ddot": 0,
        "tle_line1": "1 40010U 14033A   25353.76670674  .00000094  00000+0  16862-4 0  9996",
        "tle_line2": "2 40010  97.5499 197.7180 0008203 182.1067 178.0115 14.85177553622325"
      },
      "geometry": {
        "type": "Point",
        "coordinates": [
          6.481031520125356,
          -56.15368747797987
        ]
      }
    },
    {
      "type": "Feature",
      "properties": {
        "norad_id": 40011,
        "name": "HODOYOSHI-4",
        "group": "resource",
        "lat": 24.17989934222997,
        "lon": 179.063935841989,
        "alt_km": 619.7881277344095,
        "timestamp": "2025-12-19T22:41:52.036150+00:00",
        "meta_object_name": "HODOYOSHI-4",
        "meta_object_id": "2014-033B",
        "meta_epoch": "2025-12-19T19:21:32.509728",
        "meta_mean_motion": 14.87504998,
        "meta_eccentricity": 0.0023697,
        "meta_inclination": 97.5405,
        "meta_ra_of_asc_node": 182.3414,
        "meta_arg_of_pericenter": 176.9596,
        "meta_mean_anomaly": 183.1769,
        "meta_ephemeris_type": 0,
        "meta_classification_type": "U",
        "meta_norad_cat_id": 40011,
        "meta_element_set_no": 999,
        "meta_rev_at_epoch": 62213,
        "meta_bstar": 0.00016723,
        "meta_mean_motion_dot": 1.472e-05,
        "meta_mean_motion_ddot": 0,
        "tle_line1": "1 40011U 14033B   25353.80662627  .00001472  00000+0  16723-3 0  9997",
        "tle_line2": "2 40011  97.5405 182.3414 0023697 176.9596 183.1769 14.87504998622135"
      },
      "geometry": {
        "type": "Point",
        "coordinates": [
          179.063935841989,
          24.17989934222997
        ]
      }
    },
    {
      "type": "Feature",
      "properties": {
        "norad_id": 40013,
        "name": "DEIMOS-2",
        "group": "resource",
        "lat": -35.54384641068051,
        "lon": -125.01328006269485,
        "alt_km": 595.6888855209891,
        "timestamp": "2025-12-19T22:41:52.036160+00:00",
        "meta_object_name": "DEIMOS-2",
        "meta_object_id": "2014-033D",
        "meta_epoch": "2025-12-19T19:38:28.823424",
        "meta_mean_motion": 14.93004398,
        "meta_eccentricity": 0.000144,
        "meta_inclination": 97.6068,
        "meta_ra_of_asc_node": 229.3847,
        "meta_arg_of_pericenter": 106.1152,
        "meta_mean_anomaly": 254.0226,
        "meta_ephemeris_type": 0,
        "meta_classification_type": "U",
        "meta_norad_cat_id": 40013,
        "meta_element_set_no": 999,
        "meta_rev_at_epoch": 61095,
        "meta_bstar": 0.00024061,
        "meta_mean_motion_dot": 2.447e-05,
        "meta_mean_motion_ddot": 0,
        "tle_line1": "1 40013U 14033D   25353.81838916  .00002447  00000+0  24061-3 0  9993",
        "tle_line2": "2 40013  97.6068 229.3847 0001440 106.1152 254.0226 14.93004398610959"
      },
      "geometry": {
        "type": "Point",
        "coordinates": [
          -125.01328006269485,
          -35.54384641068051
        ]
      }
    },
    {
      "type": "Feature",
      "properties": {
        "norad_id": 40015,
        "name": "HODOYOSHI-3",
        "group": "resource",
        "lat": -60.03886196502094,
        "lon": -33.962303870328824,
        "alt_km": 599.8007634370997,
        "timestamp": "2025-12-19T22:41:52.036170+00:00",
        "meta_object_name": "HODOYOSHI-3",
        "meta_object_id": "2014-033F",
        "meta_epoch": "2025-12-19T16:45:48.556224",
        "meta_mean_motion": 14.84828548,
        "meta_eccentricity": 0.003219,
        "meta_inclination": 97.6204,
        "meta_ra_of_asc_node": 159.231,
        "meta_arg_of_pericenter": 224.2275,
        "meta_mean_anomaly": 135.6367,
        "meta_ephemeris_type": 0,
        "meta_classification_type": "U",
        "meta_norad_cat_id": 40015,
        "meta_element_set_no": 999,
        "meta_rev_at_epoch": 62098,
        "meta_bstar": 0.00014158,
        "meta_mean_motion_dot": 1.161e-05,
        "meta_mean_motion_ddot": 0,
        "tle_line1": "1 40015U 14033F   25353.69847866  .00001161  00000+0  14158-3 0  9993",
        "tle_line2": "2 40015  97.6204 159.2310 0032190 224.2275 135.6367 14.84828548620988"
      },
      "geometry": {
        "type": "Point",
        "coordinates": [
          -33.962303870328824,
          -60.03886196502094
        ]
      }
    },
    {
      "type": "Feature",
      "properties": {
        "norad_id": 40053,
        "name": "SPOT 7",
        "group": "resource",
        "lat": 58.94233562364247,
        "lon": 42.193649768960945,
        "alt_km": 684.0756023376916,
        "timestamp": "2025-12-19T22:41:52.036180+00:00",
        "meta_object_name": "SPOT 7",
        "meta_object_id": "2014-034A",
        "meta_epoch": "2025-12-19T17:29:33.345888",
        "meta_mean_motion": 14.60742847,
        "meta_eccentricity": 0.0001546,
        "meta_inclination": 98.0903,
        "meta_ra_of_asc_node": 55.6437,
        "meta_arg_of_pericenter": 84.6997,
        "meta_mean_anomaly": 275.438,
        "meta_ephemeris_type": 0,
        "meta_classification_type": "U",
        "meta_norad_cat_id": 40053,
        "meta_element_set_no": 999,
        "meta_rev_at_epoch": 61093,
        "meta_bstar": 0.00012976,
        "meta_mean_motion_dot": 5.87e-06,
        "meta_mean_motion_ddot": 0,
        "tle_line1": "1 40053U 14034A   25353.72885817  .00000587  00000+0  12976-3 0  9995",
        "tle_line2": "2 40053  98.0903  55.6437 0001546  84.6997 275.4380 14.60742847610933"
      },
      "geometry": {
        "type": "Point",
        "coordinates": [
          42.193649768960945,
          58.94233562364247
        ]
      }
    },
    {
      "type": "Feature",
      "properties": {
        "norad_id": 40072,
        "name": "SKYSAT-B",
        "group": "resource",
        "lat": -35.41873821055269,
        "lon": -55.96312887534415,
        "alt_km": 616.9480420818081,
        "timestamp": "2025-12-19T22:41:52.036190+00:00",
        "meta_object_name": "SKYSAT-B",
        "meta_object_id": "2014-037D",
        "meta_epoch": "2025-12-19T09:56:31.818624",
        "meta_mean_motion": 14.87349396,
        "meta_eccentricity": 0.0006559,
        "meta_inclination": 98.362,
        "meta_ra_of_asc_node": 297.473,
        "meta_arg_of_pericenter": 131.3672,
        "meta_mean_anomaly": 228.8107,
        "meta_ephemeris_type": 0,
        "meta_classification_type": "U",
        "meta_norad_cat_id": 40072,
        "meta_element_set_no": 999,
        "meta_rev_at_epoch": 61923,
        "meta_bstar": 0.0001415,
        "meta_mean_motion_dot": 1.217e-05,
        "meta_mean_motion_ddot": 0,
        "tle_line1": "1 40072U 14037D   25353.41425716  .00001217  00000+0  14150-3 0  9990",
        "tle_line2": "2 40072  98.3620 297.4730 0006559 131.3672 228.8107 14.87349396619236"
      },
      "geometry": {
        "type": "Point",
        "coordinates": [
          -55.96312887534415,
          -35.41873821055269
        ]
      }
    },
    {
      "type": "Feature",
      "properties": {
        "norad_id": 40115,
        "name": "WORLDVIEW-3 (WV-3)",
        "group": "resource",
        "lat": 18.48681749663996,
        "lon": -111.21018649286201,
        "alt_km": 613.8595987415856,
        "timestamp": "2025-12-19T22:41:52.036201+00:00",
        "meta_object_name": "WORLDVIEW-3 (WV-3)",
        "meta_object_id": "2014-048A",
        "meta_epoch": "2025-12-19T17:07:17.406624",
        "meta_mean_motion": 14.84662552,
        "meta_eccentricity": 0.0001764,
        "meta_inclination": 97.8773,
        "meta_ra_of_asc_node": 65.9071,
        "meta_arg_of_pericenter": 137.697,
        "meta_mean_anomaly": 222.4381,
        "meta_ephemeris_type": 0,
        "meta_classification_type": "U",
        "meta_norad_cat_id": 40115,
        "meta_element_set_no": 999,
        "meta_rev_at_epoch": 61527,
        "meta_bstar": 9.7873e-05,
        "meta_mean_motion_dot": 7.74e-06,
        "meta_mean_motion_ddot": 0,
        "tle_line1": "1 40115U 14048A   25353.71339591  .00000774  00000+0  97873-4 0  9999",
        "tle_line2": "2 40115  97.8773  65.9071 0001764 137.6970 222.4381 14.84662552615279"
      },
      "geometry": {
        "type": "Point",
        "coordinates": [
          -111.21018649286201,
          18.48681749663996
        ]
      }
    }
  ]
}